<?xml version="1.0" encoding="UTF-8"?>
<ndm xmlns:xsi="http://www.w3.org/2001/XMLSchema-instance" xsi:noNamespaceSchemaLocation="https://sanaregistry.org/r/ndmxml_unqualified/ndmxml-2.0.0-master-2.0.xsd">
<omm id="CCSDS_OMM_VERS" version="2.0">
<header><CREATION_DATE/><ORIGINATOR/></header><body><segment><metadata><OBJECT_NAME>ORBCOMM FM20</OBJECT_NAME><OBJECT_ID>1998-046D</OBJECT_ID><CENTER_NAME>EARTH</CENTER_NAME><REF_FRAME>TEME</REF_FRAME><TIME_SYSTEM>UTC</TIME_SYSTEM><MEAN_ELEMENT_THEORY>SGP4</MEAN_ELEMENT_THEORY></metadata><data><meanElements><EPOCH>2025-02-20T04:27:33.020640</EPOCH><MEAN_MOTION>14.36777543</MEAN_MOTION><ECCENTRICITY>.0001993</ECCENTRICITY><INCLINATION>44.9951</INCLINATION><RA_OF_ASC_NODE>15.2075</RA_OF_ASC_NODE><ARG_OF_PERICENTER>330.4292</ARG_OF_PERICENTER><MEAN_ANOMALY>29.6442</MEAN_ANOMALY></meanElements><tleParameters><EPHEMERIS_TYPE>0</EPHEMERIS_TYPE><CLASSIFICATION_TYPE>U</CLASSIFICATION_TYPE><NORAD_CAT_ID>25416</NORAD_CAT_ID><ELEMENT_SET_NO>999</ELEMENT_SET_NO><REV_AT_EPOCH>38747</REV_AT_EPOCH><BSTAR>.8472E-3</BSTAR><MEAN_MOTION_DOT>.2382E-4</MEAN_MOTION_DOT><MEAN_MOTION_DDOT>0</MEAN_MOTION_DDOT></tleParameters></data></segment></body></omm>
<omm id="CCSDS_OMM_VERS" version="2.0">
<header><CREATION_DATE/><ORIGINATOR/></header><body><segment><metadata><OBJECT_NAME>ORBCOMM FM16</OBJECT_NAME><OBJECT_ID>1998-046E</OBJECT_ID><CENTER_NAME>EARTH</CENTER_NAME><REF_FRAME>TEME</REF_FRAME><TIME_SYSTEM>UTC</TIME_SYSTEM><MEAN_ELEMENT_THEORY>SGP4</MEAN_ELEMENT_THEORY></metadata><data><meanElements><EPOCH>2025-02-19T21:33:09.974304</EPOCH><MEAN_MOTION>14.38299140</MEAN_MOTION><ECCENTRICITY>.0004242</ECCENTRICITY><INCLINATION>44.9947</INCLINATION><RA_OF_ASC_NODE>9.6175</RA_OF_ASC_NODE><ARG_OF_PERICENTER>38.4710</ARG_OF_PERICENTER><MEAN_ANOMALY>321.6441</MEAN_ANOMALY></meanElements><tleParameters><EPHEMERIS_TYPE>0</EPHEMERIS_TYPE><CLASSIFICATION_TYPE>U</CLASSIFICATION_TYPE><NORAD_CAT_ID>25417</NORAD_CAT_ID><ELEMENT_SET_NO>999</ELEMENT_SET_NO><REV_AT_EPOCH>38736</REV_AT_EPOCH><BSTAR>.11737E-2</BSTAR><MEAN_MOTION_DOT>.3464E-4</MEAN_MOTION_DOT><MEAN_MOTION_DDOT>0</MEAN_MOTION_DDOT></tleParameters></data></segment></body></omm>
<omm id="CCSDS_OMM_VERS" version="2.0">
<header><CREATION_DATE/><ORIGINATOR/></header><body><segment><metadata><OBJECT_NAME>ORBCOMM FM15</OBJECT_NAME><OBJECT_ID>1998-046F</OBJECT_ID><CENTER_NAME>EARTH</CENTER_NAME><REF_FRAME>TEME</REF_FRAME><TIME_SYSTEM>UTC</TIME_SYSTEM><MEAN_ELEMENT_THEORY>SGP4</MEAN_ELEMENT_THEORY></metadata><data><meanElements><EPOCH>2025-02-19T21:58:17.436576</EPOCH><MEAN_MOTION>14.37971694</MEAN_MOTION><ECCENTRICITY>.0003708</ECCENTRICITY><INCLINATION>44.9978</INCLINATION><RA_OF_ASC_NODE>14.3378</RA_OF_ASC_NODE><ARG_OF_PERICENTER>36.3915</ARG_OF_PERICENTER><MEAN_ANOMALY>323.7185</MEAN_ANOMALY></meanElements><tleParameters><EPHEMERIS_TYPE>0</EPHEMERIS_TYPE><CLASSIFICATION_TYPE>U</CLASSIFICATION_TYPE><NORAD_CAT_ID>25418</NORAD_CAT_ID><ELEMENT_SET_NO>999</ELEMENT_SET_NO><REV_AT_EPOCH>38736</REV_AT_EPOCH><BSTAR>.10718E-2</BSTAR><MEAN_MOTION_DOT>.3129E-4</MEAN_MOTION_DOT><MEAN_MOTION_DDOT>0</MEAN_MOTION_DDOT></tleParameters></data></segment></body></omm>
<omm id="CCSDS_OMM_VERS" version="2.0">
<header><CREATION_DATE/><ORIGINATOR/></header><body><segment><metadata><OBJECT_NAME>ORBCOMM FM14</OBJECT_NAME><OBJECT_ID>1998-046G</OBJECT_ID><CENTER_NAME>EARTH</CENTER_NAME><REF_FRAME>TEME</REF_FRAME><TIME_SYSTEM>UTC</TIME_SYSTEM><MEAN_ELEMENT_THEORY>SGP4</MEAN_ELEMENT_THEORY></metadata><data><meanElements><EPOCH>2025-02-19T21:24:15.640416</EPOCH><MEAN_MOTION>14.38286294</MEAN_MOTION><ECCENTRICITY>.0003139</ECCENTRICITY><INCLINATION>44.9967</INCLINATION><RA_OF_ASC_NODE>13.0078</RA_OF_ASC_NODE><ARG_OF_PERICENTER>18.4625</ARG_OF_PERICENTER><MEAN_ANOMALY>341.6336</MEAN_ANOMALY></meanElements><tleParameters><EPHEMERIS_TYPE>0</EPHEMERIS_TYPE><CLASSIFICATION_TYPE>U</CLASSIFICATION_TYPE><NORAD_CAT_ID>25419</NORAD_CAT_ID><ELEMENT_SET_NO>999</ELEMENT_SET_NO><REV_AT_EPOCH>38732</REV_AT_EPOCH><BSTAR>.1046E-2</BSTAR><MEAN_MOTION_DOT>.3071E-4</MEAN_MOTION_DOT><MEAN_MOTION_DDOT>0</MEAN_MOTION_DDOT></tleParameters></data></segment></body></omm>
<omm id="CCSDS_OMM_VERS" version="2.0">
<header><CREATION_DATE/><ORIGINATOR/></header><body><segment><metadata><OBJECT_NAME>ORBCOMM FM13</OBJECT_NAME><OBJECT_ID>1998-046H</OBJECT_ID><CENTER_NAME>EARTH</CENTER_NAME><REF_FRAME>TEME</REF_FRAME><TIME_SYSTEM>UTC</TIME_SYSTEM><MEAN_ELEMENT_THEORY>SGP4</MEAN_ELEMENT_THEORY></metadata><data><meanElements><EPOCH>2025-02-20T04:28:29.840736</EPOCH><MEAN_MOTION>14.37174998</MEAN_MOTION><ECCENTRICITY>.0005082</ECCENTRICITY><INCLINATION>44.9984</INCLINATION><RA_OF_ASC_NODE>18.4959</RA_OF_ASC_NODE><ARG_OF_PERICENTER>25.8473</ARG_OF_PERICENTER><MEAN_ANOMALY>334.2628</MEAN_ANOMALY></meanElements><tleParameters><EPHEMERIS_TYPE>0</EPHEMERIS_TYPE><CLASSIFICATION_TYPE>U</CLASSIFICATION_TYPE><NORAD_CAT_ID>25420</NORAD_CAT_ID><ELEMENT_SET_NO>999</ELEMENT_SET_NO><REV_AT_EPOCH>38753</REV_AT_EPOCH><BSTAR>.99872E-3</BSTAR><MEAN_MOTION_DOT>.2858E-4</MEAN_MOTION_DOT><MEAN_MOTION_DDOT>0</MEAN_MOTION_DDOT></tleParameters></data></segment></body></omm>
<omm id="CCSDS_OMM_VERS" version="2.0">
<header><CREATION_DATE/><ORIGINATOR/></header><body><segment><metadata><OBJECT_NAME>ORBCOMM FM21</OBJECT_NAME><OBJECT_ID>1998-053A</OBJECT_ID><CENTER_NAME>EARTH</CENTER_NAME><REF_FRAME>TEME</REF_FRAME><TIME_SYSTEM>UTC</TIME_SYSTEM><MEAN_ELEMENT_THEORY>SGP4</MEAN_ELEMENT_THEORY></metadata><data><meanElements><EPOCH>2025-02-19T14:41:26.759328</EPOCH><MEAN_MOTION>14.36912009</MEAN_MOTION><ECCENTRICITY>.0002567</ECCENTRICITY><INCLINATION>45.0072</INCLINATION><RA_OF_ASC_NODE>106.1321</RA_OF_ASC_NODE><ARG_OF_PERICENTER>283.5355</ARG_OF_PERICENTER><MEAN_ANOMALY>76.5207</MEAN_ANOMALY></meanElements><tleParameters><EPHEMERIS_TYPE>0</EPHEMERIS_TYPE><CLASSIFICATION_TYPE>U</CLASSIFICATION_TYPE><NORAD_CAT_ID>25475</NORAD_CAT_ID><ELEMENT_SET_NO>999</ELEMENT_SET_NO><REV_AT_EPOCH>38033</REV_AT_EPOCH><BSTAR>.7234E-3</BSTAR><MEAN_MOTION_DOT>.2019E-4</MEAN_MOTION_DOT><MEAN_MOTION_DDOT>0</MEAN_MOTION_DDOT></tleParameters></data></segment></body></omm>
<omm id="CCSDS_OMM_VERS" version="2.0">
<header><CREATION_DATE/><ORIGINATOR/></header><body><segment><metadata><OBJECT_NAME>ORBCOMM FM22</OBJECT_NAME><OBJECT_ID>1998-053B</OBJECT_ID><CENTER_NAME>EARTH</CENTER_NAME><REF_FRAME>TEME</REF_FRAME><TIME_SYSTEM>UTC</TIME_SYSTEM><MEAN_ELEMENT_THEORY>SGP4</MEAN_ELEMENT_THEORY></metadata><data><meanElements><EPOCH>2025-02-19T20:50:52.716480</EPOCH><MEAN_MOTION>14.37807154</MEAN_MOTION><ECCENTRICITY>.0003864</ECCENTRICITY><INCLINATION>45.0067</INCLINATION><RA_OF_ASC_NODE>100.6663</RA_OF_ASC_NODE><ARG_OF_PERICENTER>311.2534</ARG_OF_PERICENTER><MEAN_ANOMALY>48.7981</MEAN_ANOMALY></meanElements><tleParameters><EPHEMERIS_TYPE>0</EPHEMERIS_TYPE><CLASSIFICATION_TYPE>U</CLASSIFICATION_TYPE><NORAD_CAT_ID>25476</NORAD_CAT_ID><ELEMENT_SET_NO>999</ELEMENT_SET_NO><REV_AT_EPOCH>38038</REV_AT_EPOCH><BSTAR>.89404E-3</BSTAR><MEAN_MOTION_DOT>.2577E-4</MEAN_MOTION_DOT><MEAN_MOTION_DDOT>0</MEAN_MOTION_DDOT></tleParameters></data></segment></body></omm>
<omm id="CCSDS_OMM_VERS" version="2.0">
<header><CREATION_DATE/><ORIGINATOR/></header><body><segment><metadata><OBJECT_NAME>ORBCOMM FM23</OBJECT_NAME><OBJECT_ID>1998-053C</OBJECT_ID><CENTER_NAME>EARTH</CENTER_NAME><REF_FRAME>TEME</REF_FRAME><TIME_SYSTEM>UTC</TIME_SYSTEM><MEAN_ELEMENT_THEORY>SGP4</MEAN_ELEMENT_THEORY></metadata><data><meanElements><EPOCH>2025-02-20T04:22:26.463072</EPOCH><MEAN_MOTION>14.37045052</MEAN_MOTION><ECCENTRICITY>.0003188</ECCENTRICITY><INCLINATION>45.0073</INCLINATION><RA_OF_ASC_NODE>105.7033</RA_OF_ASC_NODE><ARG_OF_PERICENTER>300.6171</ARG_OF_PERICENTER><MEAN_ANOMALY>59.4362</MEAN_ANOMALY></meanElements><tleParameters><EPHEMERIS_TYPE>0</EPHEMERIS_TYPE><CLASSIFICATION_TYPE>U</CLASSIFICATION_TYPE><NORAD_CAT_ID>25477</NORAD_CAT_ID><ELEMENT_SET_NO>999</ELEMENT_SET_NO><REV_AT_EPOCH>38087</REV_AT_EPOCH><BSTAR>.82091E-3</BSTAR><MEAN_MOTION_DOT>.2317E-4</MEAN_MOTION_DOT><MEAN_MOTION_DDOT>0</MEAN_MOTION_DDOT></tleParameters></data></segment></body></omm>

</ndm>
